    CK19S040  2020 04  9.0776  3.440050  0.986037   71.3725   63.1582   92.1068  20250124  11.0  4.0  C/2019 S4 (Lemmon)                                       MPEC 2021-S45
    AK19T010  2021 01 15.0423  4.276078  0.889813   91.0060    6.9363  120.8364  20250124  13.0  2.0  A/2019 T1                                                MPEC 2023-N01
    CK19T020  2021 04 22.6487  2.643879  0.999365  239.4009  155.6560  111.3938  20250124   9.0  4.0  C/2019 T2 (Lemmon)                                       MPEC 2023-R20
    CK19T030  2021 03  4.5432  5.953743  0.998499  112.4831  139.5392  121.8646  20250124   6.8  4.0  C/2019 T3 (ATLAS)                                        MPEC 2023-UR6
    CK19T040  2022 06  8.6339  4.238271  0.995148  351.1085  199.9162   53.6258  20250124   5.0  4.0  C/2019 T4 (ATLAS)                                        MPEC 2024-VJ2
    PK19T050  2019 08  3.2503  1.522334  0.809841  189.6099  247.6108   33.4999  20250124  15.0  4.0  P/2019 T5 (ATLAS)                                        MPEC 2021-P47
    PK19T060  2019 11  9.1035  2.053206  0.622702  329.0513   71.2431   18.7005  20250124  15.5  4.0  P/2019 T6 (PANSTARRS)                                    MPEC 2021-P47
    PK19U040  2026 04 28.4849  1.844597  0.475831  181.0737  200.0089   11.6960  20250124  19.0  4.0  P/2019 U4 (PANSTARRS)                                    MPC118096
    CK19U050  2023 03 29.5432  3.623861  1.000404  181.4531    2.6211  113.5125  20250124   4.5  4.0  C/2019 U5 (PANSTARRS)                                    MPEC 2025-AH4
    CK19U060  2020 06 18.2616  0.908064  0.997046  329.4455  235.7777   60.9716  20250124  10.0  4.0  C/2019 U6 (Lemmon)                                       MPEC 2022-H04
    CK19V010  2020 07 17.2901  3.092733  0.998635   51.1819   83.1479   61.9504  20250124  11.0  4.0  C/2019 V1 (Borisov)                                      MPEC 2022-N37
    PK19V020  2020 10 16.8627  5.008601  0.331691  335.6172  189.1527   11.8069  20250124  10.0  4.0  P/2019 V2 (Groeller)                                     MPEC 2022-L66
    PK19W010  2029 01 21.9023  3.332690  0.267294   18.8634   35.3690   23.4698  20250124  12.9  4.0  P/2019 W1 (PANSTARRS)                                    MPEC 2023-A50
    PK19X010  2019 07 24.3923  4.300158  0.303963   36.9407   43.6791   10.2478  20250124  10.4  4.0  P/2019 X1 (Pruyne)                                       MPEC 2021-P47
    PK19X020  2026 11 15.2793  1.815837  0.500415  213.4897  250.8383   15.8951  20250124  18.0  4.0  P/2019 X2 (Pan-STARRS)                                   MPEC 2020-C98
    CK19Y010  2020 03 17.0144  0.826595  0.990601   57.9071   31.5057   73.3223  20250124  13.7  4.0  C/2019 Y1 (ATLAS)                                        MPC119999
    PK19Y030  2025 03  3.8448  0.931029  0.691355    2.5488  139.3087   24.5819  20250124  18.5  4.0  P/2019 Y3 (Catalina)                                     MPEC 2025-AH4
    CK19Y040  2020 05 30.0001  0.257109  0.999241  177.4226  120.7742   44.9741  20250124  11.8  6.0  C/2019 Y4 (ATLAS)                                        MPEC 2024-A43
    CK19Y04a  2020 05 30.0463  0.255268  1.001383  177.2553  121.1409   45.4103  20250124  11.6  6.0  C/2019 Y4-A (ATLAS)                                      MPEC 2020-L06
    CK19Y04b  2020 05 30.0124  0.256583  0.999974  177.3666  120.8820   45.1029  20250124  12.1  6.0  C/2019 Y4-B (ATLAS)                                      MPEC 2023-J29
    CK19Y04c  2020 05 29.9986  0.256343  1.002111  177.2882  120.8681   45.1938  20250124  12.7  6.0  C/2019 Y4-C (ATLAS)                                      MPEC 2020-L06
    CK19Y04d  2020 05 30.1023  0.255650  0.996220  177.4298  121.2316   45.2454  20250124  12.5  6.0  C/2019 Y4-D (ATLAS)                                      MPEC 2020-L06
    CK19Y050  2019 08 16.8802  4.931277  0.992923  303.6485   51.7558   82.7659  20250124  11.0  4.0  C/2019 Y5 (PANSTARRS)                                    MPEC 2023-A50
    AK20A010  2019 11 30.6947  1.669469  0.934469  302.3980  119.0831  149.0318  20250124  18.0  2.0  A/2020 A1                                                MPEC 2023-A50
    CK20A020  2020 01  7.5652  0.974286  0.999049   68.0124  286.2002  120.5169  20250124  13.5  4.0  C/2020 A2 (Iwamoto)                                      MPEC 2022-YN2
    CK20A030  2019 06 27.4899  5.753119  0.999298  268.2526  120.8005  146.6271  20250124   8.0  4.0  C/2020 A3 (ATLAS)                                        MPEC 2023-A50
    PK20A040  2019 11 24.2569  2.833235  0.654498  144.8659  312.2979   24.9997  20250124  15.0  4.0  P/2020 A4 (PANSTARRS-Lemmon)                             MPEC 2022-P91
    AK20B010  2019 12 27.4512  1.738346  0.966525  154.8350  309.8296   18.5361  20250124  21.0  2.0  A/2020 B1                                                MPEC 2020-N08
    CK20B020  2020 01 27.1310  2.756054  0.959331  143.6050  354.2101   55.7533  20250124  10.0  4.0  C/2020 B2 (Lemmon)                                       MPEC 2020-HN5
    CK20B030  2019 10 20.4221  3.328067  0.996674  324.8998  185.7764   20.7071  20250124  13.0  4.0  C/2020 B3 (Rankin)                                       MPEC 2022-N37
    PK20B040  2021 11 18.4325  6.435398  0.192645  341.9951  185.9595   11.6045  20250124  10.5  4.0  P/2020 B4 (Sheppard)                                     MPEC 2023-KD6
    CK20F020  2022 07 12.9223  8.813673  1.003315   48.2520  250.3045  163.5896  20250124   4.5  4.0  C/2020 F2 (ATLAS)                                        MPEC 2025-AH4
    CK20F030  2020 07  4.6688  0.294159  0.999257   37.3752   61.0946  129.1487  20250124   7.5  5.2  C/2020 F3 (NEOWISE)                                      MPEC 2021-O56
    CK20F050  2021 03 16.4463  4.326974  0.973944  310.6458  350.5265   52.2240  20250124   6.5  3.2  C/2020 F5 (MASTER)                                       MPEC 2024-UQ8
    CK20F060  2020 04 10.8118  3.498368  0.990090  344.3727  207.8615  174.5837  20250124  14.5  2.8  C/2020 F6 (PANSTARRS)                                    MPEC 2020-L06
    CK20F070  2021 11 13.7029  5.333894  0.990445  227.9663  321.8305   93.9742  20250124   7.0  4.0  C/2020 F7 (Lemmon)                                       MPEC 2024-A43
    CK20F080  2020 05 26.1903  0.431691  0.999828   68.0954  259.7889  110.5473  20250124  10.0  4.0  C/2020 F8 (SWAN)                                         MPEC 2025-AE4
    PK20G010  2027 01 24.2170  0.502067  0.860806  207.6328  240.1086   18.5107  20250124  17.0  4.0  P/2020 G1 (Pimentel)                                     MPEC 2020-L06
    CK20H020  2020 04 27.2546  0.828626  0.995483   26.5974  277.6726  124.7864  20250124  14.0  3.2  C/2020 H2 (Pruyne)                                       MPEC 2025-AE4
    CK20H030  2020 06  5.7161  2.300288  1.000000   30.4456  270.6227   62.5292            13.5  4.0  C/2020 H3 (Wierzchos)                                    MPEC 2020-HM1
    CK20H040  2020 08 29.1902  0.936544  0.992606  116.7814  307.4870   84.2880  20250124  15.0  3.2  C/2020 H4 (Leonard)                                      MPEC 2025-AE4
    CK20H050  2020 12  9.9226  9.335970  0.998263  326.2691  210.6208   70.2397  20250124   5.0  4.0  C/2020 H5 (Robinson)                                     MPEC 2024-P23
    CK20H060  2021 09 29.7565  4.697806  0.997877   20.2088  213.7046   79.9829  20250124   8.0  3.2  C/2020 H6 (ATLAS)                                        MPEC 2024-JU4
    CK20H070  2020 06  2.9509  4.419545  0.996854   82.6780  323.5194  135.9235            11.0  4.0  C/2020 H7 (Lemmon)                                       MPEC 2020-KB7
    CK20H080  2020 06  4.7207  4.666221  0.992162  128.8491   68.4447   99.7070  20250124  10.5  4.0  C/2020 H8 (PANSTARRS)                                    MPEC 2021-N06
    AK20H090  2019 12 21.9245  2.563722  0.992654  312.6680  213.1469  137.8757  20250124  18.0  2.0  A/2020 H9                                                MPEC 2022-ED3
    CK20H110  2020 09 13.1415  7.621277  1.000363   91.3812  303.0554  151.3774  20250124   8.5  4.0  C/2020 H11 (PANSTARRS-Lemmon)                            MPEC 2023-HN7
    CK20J010  2021 04 18.2730  3.346316  0.999944  341.6162  226.5997  142.3062  20250124   8.5  3.2  C/2020 J1 (SONEAR)                                       MPEC 2023-KD6
    CK20K010  2023 05  8.9068  3.073617  0.999074  213.9741   94.3668   89.6710  20250124   5.5  4.0  C/2020 K1 (PANSTARRS)                                    MPEC 2025-AH4
    CK20K020  2020 08  5.0504  8.880363  1.001635   67.3237  288.4301   90.9925  20250124  10.8  4.0  C/2020 K2 (PANSTARRS)                                    MPEC 2021-N06
    CK20K030  2020 06  1.0031  1.583069  1.000000   64.4924   28.3546  129.0152            14.5  4.0  C/2020 K3 (Leonard)                                      MPEC 2020-KF9
    CK20K040  2020 03  4.8135  1.746437  0.927068  308.8179  264.2768  125.5849  20250124  16.5  4.0  C/2020 K4 (PANSTARRS)                                    MPEC 2020-L06
    CK20K050  2021 06  4.6014  1.539860  1.000933  249.6399   86.1411   67.0675  20250124  11.0  4.0  C/2020 K5 (PANSTARRS)                                    MPEC 2021-R75
    CK20K060  2021 09 15.1243  5.866890  1.002621   44.2982  291.5950  103.6338  20250124   8.0  4.0  C/2020 K6 (Rankin)                                       MPEC 2023-N01
    CK20K070  2019 10 25.8654  6.391131  0.932938  358.1245  286.1280   32.0445  20250124   8.0  4.0  C/2020 K7 (PANSTARRS)                                    MPEC 2023-A50
    CK20K080  2020 09 15.5818  0.471013  1.000294  260.0862  181.3717   31.4027  20250124  15.0  3.2  C/2020 K8 (Catalina-ATLAS)                               MPEC 2021-P47
    PK20K090  2021 02 11.7301  2.858922  0.320373  197.0967  166.3133   23.1943  20250124  12.5  4.0  P/2020 K9 (Lemmon-PANSTARRS)                             MPEC 2021-BE3
